NORAD_CAT_ID,OBJECT_NAME,OBJECT_TYPE,EPOCH,MEAN_MOTION,ECCENTRICITY,INCLINATION,RA_OF_ASC_NODE,ARG_OF_PERICENTER,MEAN_ANOMALY,BSTAR,MEAN_MOTION_DOT,MEAN_MOTION_DDOT,TLE_LINE0,TLE_LINE1,TLE_LINE2,SEMIMAJOR_AXIS,PERIOD,APOGEE,PERIGEE,DECAYED
55295.0,STARLINK-5293,PAYLOAD,2023-03-31 08:00:01,15.05883898,0.0003036,69.9996,233.6022,268.7021,313.6703,-0.080607,-0.01084872,0.0,0 STARLINK-5293,1 55295U 23010AC  23090.33334491 -.01084872  00000-0 -80607-1 0  9990,2 55295  69.9996 233.6022 0003036 268.7021 313.6703 15.05883898 11530,6926.931,95.625,550.899,546.693,0.0
55295.0,STARLINK-5293,PAYLOAD,2023-04-01 08:00:01,15.03603335,0.0003088,69.9995,231.0558,263.0144,334.8099,-0.086083,-0.01089329,0.0,0 STARLINK-5293,1 55295U 23010AC  23091.33334491 -.01089329  00000-0 -86083-1 0  9997,2 55295  69.9995 231.0558 0003088 263.0144 334.8099 15.03603335 11689,6933.933,95.77,557.939,553.657,0.0
55295.0,STARLINK-5293,PAYLOAD,2023-04-01 14:00:01,15.03004063,0.0003084,69.9997,230.4201,270.1623,240.2601,-0.085564,-0.01067313,0.0,0 STARLINK-5293,1 55295U 23010AC  23091.58334491 -.01067313  00000-0 -85564-1 0  9996,2 55295  69.9997 230.4201 0003084 270.1623 240.2601 15.03004063  1306,6935.776,95.808,559.78,555.502,0.0
55295.0,STARLINK-5293,PAYLOAD,2023-04-02 00:00:00,15.02087387,0.0002967,69.9994,229.3629,269.0647,334.502,-0.092312,-0.01119423,0.0,0 STARLINK-5293,1 55295U 23010AC  23092.00001157 -.01119423  00000-0 -92312-1 0  9993,2 55295  69.9994 229.3629 0002967 269.0647 334.5020 15.02087387  1307,6938.598,95.867,562.521,558.404,0.0
55295.0,STARLINK-5293,PAYLOAD,2023-04-02 14:00:01,15.00717778,0.0003092,69.9998,227.8849,271.4763,244.132,-0.090366,-0.01061436,0.0,0 STARLINK-5293,1 55295U 23010AC  23092.58334491 -.01061436  00000-0 -90366-1 0  9993,2 55295  69.9998 227.8849 0003092 271.4763 244.1320 15.00717778  1305,6942.819,95.954,566.83,562.537,0.0
55295.0,STARLINK-5293,PAYLOAD,2023-04-02 16:00:00,15.00512744,0.0003063,69.9998,227.6741,270.7392,334.9314,-0.087761,-0.01027837,0.0,0 STARLINK-5293,1 55295U 23010AC  23092.66667824 -.01027837  00000-0 -87761-1 0  9993,2 55295  69.9998 227.6741 0003063 270.7392 334.9314 15.00512744 11883,6943.451,95.967,567.443,563.189,0.0
55295.0,STARLINK-5293,PAYLOAD,2023-04-02 22:00:00,14.99939467,0.0003139,69.9996,227.0416,272.8666,242.6384,-0.084284,-0.00976104,0.0,0 STARLINK-5293,1 55295U 23010AC  23092.91667824 -.00976104  00000-0 -84284-1 0  9997,2 55295  69.9996 227.0416 0003139 272.8666 242.6384 14.99939467  1305,6945.22,96.004,569.265,564.905,0.0
55295.0,STARLINK-5293,PAYLOAD,2023-04-03 06:00:00,14.99120845,0.0003256,69.9997,226.1997,266.521,247.9752,0.0034337,0.00041977,0.0,0 STARLINK-5293,1 55295U 23010AC  23093.25001157  .00041977  00000-0  34337-2 0  9990,2 55295  69.9997 226.1997 0003256 266.5210 247.9752 14.99120845 11978,6947.748,96.056,571.876,567.351,0.0
55295.0,STARLINK-5293,PAYLOAD,2023-04-03 14:00:01,14.9915465,0.0003252,70.0001,225.3581,270.6067,242.3459,-0.0042208,-0.00051172,0.0,0 STARLINK-5293,1 55295U 23010AC  23093.58334491 -.00051172  00000-0 -42208-2 0  9992,2 55295  70.0001 225.3581 0003252 270.6067 242.3459 14.99154650  1309,6947.644,96.054,571.768,567.25,0.0
55295.0,STARLINK-5293,PAYLOAD,2023-04-03 22:00:00,14.99136707,0.000326,69.9999,224.5164,272.4005,239.0074,-0.0012221,-0.00014952,0.0,0 STARLINK-5293,1 55295U 23010AC  23093.91667824 -.00014952  00000-0 -12221-2 0  9995,2 55295  69.9999 224.5164 0003260 272.4005 239.0074 14.99136707 12076,6947.699,96.055,571.829,567.299,0.0
55295.0,STARLINK-5293,PAYLOAD,2023-04-04 14:00:01,14.99163789,0.0003291,70.0005,222.8334,270.1494,238.1437,-0.0031848,-0.00038712,0.0,0 STARLINK-5293,1 55295U 23010AC  23094.58334491 -.00038712  00000-0 -31848-2 0  9996,2 55295  70.0005 222.8334 0003291 270.1494 238.1437 14.99163789 12172,6947.616,96.054,571.767,567.194,0.0
55295.0,STARLINK-5293,PAYLOAD,2023-04-04 16:00:00,14.99152486,0.0003266,70.0005,222.6229,272.1526,325.7615,-0.002033,-0.00024787,0.0,0 STARLINK-5293,1 55295U 23010AC  23094.66667824 -.00024787  00000-0 -20330-2 0  9995,2 55295  70.0005 222.6229 0003266 272.1526 325.7615 14.99152486  1309,6947.651,96.054,571.785,567.246,0.0
55295.0,STARLINK-5293,PAYLOAD,2023-04-04 22:00:00,14.99148185,0.0003231,70.0003,221.9917,273.8448,232.9156,-0.0023576,-0.0002871,0.0,0 STARLINK-5293,1 55295U 23010AC  23094.91667824 -.00028710  00000-0 -23576-2 0  9998,2 55295  70.0003 221.9917 0003231 273.8448 232.9156 14.99148185  1306,6947.664,96.055,571.774,567.284,0.0
55295.0,STARLINK-5293,PAYLOAD,2023-04-05 06:00:00,14.99101788,0.0003251,70.0007,221.1503,267.9096,237.3012,0.0061436,0.00075503,0.0,0 STARLINK-5293,1 55295U 23010AC  23095.25001157  .00075503  00000-0  61436-2 0  9994,2 55295  70.0007 221.1503 0003251 267.9096 237.3012 14.99101788 12274,6947.807,96.058,571.931,567.413,0.0
55295.0,STARLINK-5293,PAYLOAD,2023-04-05 14:00:01,14.99164351,0.000327,70.0009,220.3088,271.0328,232.622,-0.0037905,-0.0004601,0.0,0 STARLINK-5293,1 55295U 23010AC  23095.58334491 -.00046010  00000-0 -37905-2 0  9997,2 55295  70.0009 220.3088 0003270 271.0328 232.6220 14.99164351  1306,6947.614,96.054,571.751,567.207,0.0
55295.0,STARLINK-5293,PAYLOAD,2023-04-05 22:00:00,14.99145592,0.0003248,70.0008,219.4672,272.53,229.587,-0.0020675,-0.000252,0.0,0 STARLINK-5293,1 55295U 23010AC  23095.91667824 -.00025200  00000-0 -20675-2 0  9997,2 55295  70.0008 219.4672 0003248 272.5300 229.5870 14.99145592  1306,6947.672,96.055,571.793,567.28,0.0
55295.0,STARLINK-5293,PAYLOAD,2023-04-06 00:00:00,14.99145324,0.000325,70.0008,219.2568,270.8178,320.912,-0.0024611,-0.00029959,0.0,0 STARLINK-5293,1 55295U 23010AC  23096.00001157 -.00029959  00000-0 -24611-2 0  9998,2 55295  70.0008 219.2568 0003250 270.8178 320.9120 14.99145324 12382,6947.673,96.055,571.796,567.28,0.0
55295.0,STARLINK-5293,PAYLOAD,2023-04-06 14:00:01,14.9916312,0.0003323,70.0012,217.7844,271.5164,227.5656,-0.0039592,-0.00048038,0.0,0 STARLINK-5293,1 55295U 23010AC  23096.58335648 -.00048038  00000-0 -39592-2 0  9999,2 55295  70.0012 217.7844 0003323 271.5164 227.5656 14.99163120 12471,6947.618,96.054,571.791,567.174,0.0
55295.0,STARLINK-5293,PAYLOAD,2023-04-06 16:00:00,14.99142163,0.0003301,70.0012,217.574,273.6973,314.9449,-0.0011558,-0.0001415,0.0,0 STARLINK-5293,1 55295U 23010AC  23096.66667824 -.00014150  00000-0 -11558-2 0  9992,2 55295  70.0012 217.5740 0003301 273.6973 314.9449 14.99142163  1306,6947.682,96.055,571.841,567.254,0.0
55295.0,STARLINK-5293,PAYLOAD,2023-04-06 21:23:20,14.99142304,0.0002782,69.9991,217.0049,270.8042,89.2799,1.8116e-05,1.27e-06,0.0,0 STARLINK-5293,1 55295U 23010AC  23096.89121055  .00000127  00000-0  18116-4 0  9994,2 55295  69.9991 217.0049 0002782 270.8042  89.2799 14.99142304 12527,6947.682,96.055,571.48,567.614,0.0
55295.0,STARLINK-5293,PAYLOAD,2023-04-07 11:48:04,14.99192674,0.0002548,69.9991,215.4918,256.1104,103.9772,-0.00080253,-9.872e-05,0.0,0 STARLINK-5293,1 55295U 23010AC  23097.49171931 -.00009872  00000-0 -80253-3 0  9997,2 55295  69.9991 215.4918 0002548 256.1104 103.9772 14.99192674 12610,6947.526,96.052,571.162,567.621,0.0
55295.0,STARLINK-5293,PAYLOAD,2023-04-07 18:12:24,14.99166542,0.0002383,69.9987,214.8168,252.9301,107.1598,-0.00030572,-3.819e-05,0.0,0 STARLINK-5293,1 55295U 23010AC  23097.75861274 -.00003819  00000-0 -30572-3 0  9996,2 55295  69.9987 214.8168 0002383 252.9301 107.1598 14.99166542 12656,6947.607,96.053,571.128,567.817,0.0
55295.0,STARLINK-5293,PAYLOAD,2023-04-08 00:36:45,14.99133749,0.0003945,69.9995,214.1438,267.0551,93.0157,-0.00016159,-2.062e-05,0.0,0 STARLINK-5293,1 55295U 23010AC  23098.02552121 -.00002062  00000-0 -16159-3 0  9999,2 55295  69.9995 214.1438 0003945 267.0551  93.0157 14.99133749 12698,6947.708,96.055,572.314,566.833,0.0
55295.0,STARLINK-5293,PAYLOAD,2023-04-08 11:49:20,14.99129135,0.0003072,69.9986,212.9638,269.4703,90.6105,-0.00010006,-1.312e-05,0.0,0 STARLINK-5293,1 55295U 23010AC  23098.49259676 -.00001312  00000-0 -10006-3 0  9991,2 55295  69.9986 212.9638 0003072 269.4703  90.6105 14.99129135 13075,6947.723,96.056,571.722,567.453,0.0
55295.0,STARLINK-5293,PAYLOAD,2023-04-08 19:49:44,14.99139534,0.0002843,69.9993,212.1213,272.025,88.0584,3.5608e-07,-8.9e-07,0.0,0 STARLINK-5293,1 55295U 23010AC  23098.82620852 -.00000089  00000-0  35608-6 0  9993,2 55295  69.9993 212.1213 0002843 272.0250  88.0584 14.99139534 12813,6947.691,96.055,571.531,567.58,0.0
55295.0,STARLINK-5293,PAYLOAD,2023-04-09 10:14:28,14.991412,0.0002885,69.9994,210.6063,268.1293,91.9536,-4.9351e-06,-1.54e-06,0.0,0 STARLINK-5293,1 55295U 23010AC  23099.42672324 -.00000154  00000-0 -49351-5 0  9994,2 55295  69.9994 210.6063 0002885 268.1293  91.9536 14.99141200 13217,6947.685,96.055,571.555,567.546,0.0
55295.0,STARLINK-5293,PAYLOAD,2023-04-09 19:50:58,14.9914576,0.0002844,69.9999,209.5973,265.8665,94.2169,3.968e-05,3.9e-06,0.0,0 STARLINK-5293,1 55295U 23010AC  23099.82706226  .00000390  00000-0  39680-4 0  9990,2 55295  69.9999 209.5973 0002844 265.8665  94.2169 14.99145760 12965,6947.671,96.055,571.512,567.56,0.0
55295.0,STARLINK-5293,PAYLOAD,2023-04-10 07:03:33,14.99132352,0.0002761,70.0013,208.4164,268.9107,91.1736,0.00014203,1.637e-05,0.0,0 STARLINK-5293,1 55295U 23010AC  23100.29413623  .00001637  00000-0  14203-3 0  9998,2 55295  70.0013 208.4164 0002761 268.9107  91.1736 14.99132352 13036,6947.713,96.056,571.496,567.66,0.0
55295.0,STARLINK-5293,PAYLOAD,2023-04-10 19:52:13,14.99131901,0.0001948,70.0019,207.0696,274.4688,85.6248,0.00012904,1.479e-05,0.0,0 STARLINK-5293,1 55295U 23010AC  23100.82793209  .00001479  00000-0  12904-3 0  9998,2 55295  70.0019 207.0696 0001948 274.4688  85.6248 14.99131901 13427,6947.714,96.056,570.933,568.226,0.0
55295.0,STARLINK-5293,PAYLOAD,2023-04-11 11:53:02,14.99138717,0.0002924,69.9996,205.3855,270.4003,89.6821,-7.3924e-06,-1.84e-06,0.0,0 STARLINK-5293,1 55295U 23010AC  23101.49516821 -.00000184  00000-0 -73924-5 0  9990,2 55295  69.9996 205.3855 0002924 270.4003  89.6821 14.99138717 13218,6947.693,96.055,571.59,567.527,0.0
